ROBUSTA-1E (ENSO)       
1 58470U 23185J   24239.16275427  .00025394  00000+0  96940-3 0  9990
2 58470  97.4198 305.2673 0011690  38.3308 321.8759 15.26571128 40807
SITRO-AIS 29            
1 59052U 24039B   24239.15067472  .00039511  00000+0  12548-2 0  9991
2 59052  97.3961 200.7940 0013343 340.6397  19.4336 15.32456998 27294
SITRO-AIS 30            
1 59053U 24039C   24239.21939765  .00036960  00000+0  11799-2 0  9994
2 59053  97.3960 200.8493 0013606 341.0720  19.0014 15.32301829 27296
SITRO-AIS 31            
1 59054U 24039D   24239.20566576  .00038728  00000+0  12281-2 0  9991
2 59054  97.3958 200.8687 0013469 340.9423  19.1313 15.32507615 27311
SITRO-AIS 33            
1 59055U 24039E   24239.19141098  .00038214  00000+0  12073-2 0  9997
2 59055  97.3963 200.8954 0013283 341.9617  18.1152 15.32632407 27302
SITRO-AIS 35            
1 59056U 24039F   24239.18686194  .00039165  00000+0  12375-2 0  9999
2 59056  97.3962 200.8976 0013170 342.5330  17.5457 15.32624145 27301
SITRO-AIS 32            
1 59057U 24039G   24239.19938989  .00039549  00000+0  12549-2 0  9992
2 59057  97.3963 200.8836 0013190 342.6528  17.4261 15.32486783 27306
SITRO-AIS 34            
1 59058U 24039H   24239.19254165  .00038154  00000+0  12058-2 0  9996
2 59058  97.3964 200.8955 0013220 342.3693  17.7088 15.32622584 27305
SITRO-AIS 36            
1 59059U 24039J   24239.17942124  .00042005  00000+0  13213-2 0  9998
2 59059  97.3963 200.9081 0012864 342.8345  17.2461 15.32755626 27302
SITRO-AIS 49            
1 59060U 24039K   24239.18222126  .00040992  00000+0  12940-2 0  9993
2 59060  97.3963 200.9046 0012916 342.0496  18.0288 15.32647138 27306
SITRO-AIS 50            
1 59061U 24039L   24239.16535764  .00039956  00000+0  12528-2 0  9997
2 59061  97.3962 200.9255 0012787 342.5297  17.5503 15.32870842 27302
SITRO-AIS 51            
1 59062U 24039M   24239.16518896  .00038099  00000+0  11942-2 0  9991
2 59062  97.3962 200.9250 0012760 342.8254  17.2554 15.32891799 27302
SITRO-AIS 52            
1 59063U 24039N   24239.21977784  .00038501  00000+0  12020-2 0  9999
2 59063  97.3963 201.0072 0012590 342.8271  17.2543 15.33018588 27315
SITRO-AIS 25            
1 59066U 24039R   24239.16722126  .00008136  00000+0  75757-3 0  9992
2 59066  95.3974 144.7806 0171675 102.0347 260.0171 14.83813481 26487
SITRO-AIS 26            
1 59067U 24039S   24239.16846724  .00007944  00000+0  74097-3 0  9996
2 59067  95.3974 144.7785 0171618 102.0624 259.9886 14.83760198 26485
SITRO-AIS 27            
1 59068U 24039T   24239.21840211  .00008228  00000+0  76418-3 0  9993
2 59068  95.3975 144.8447 0171198 101.6782 260.3705 14.83959349 26491
SITRO-AIS 28            
1 59071U 24039U   24239.21387231  .00008238  00000+0  76476-3 0  9990
2 59071  95.3975 144.8507 0171006 101.6576 260.3891 14.83997757 26492
GRBBETA                 
1 60237U 24128C   24239.21753620  .00007347  00000+0  64213-3 0  9990
2 60237  61.9962 357.8417 0014166 322.2368  37.7725 14.97488396  7087
OOV-CUBE (TUBSAT-30)    
1 60240U 24128F   24239.16987561  .00005091  00000+0  45875-3 0  9998
2 60240  61.9999 358.1840 0012624 310.3595  49.6390 14.96770530  7085
ROBUSTA-3A (MEDITERRAN*)
1 60243U 24128J   24239.18414788  .00010774  00000+0  95379-3 0  9997
2 60243  61.9937 358.2098 0014499 298.2909  61.6715 14.96633352  7086
BEIJING 1               
1 28890U 05043A   24239.22198273  .00001078  00000+0  22195-3 0  9990
2 28890  98.2079   1.6043 0014777 182.6318 177.4808 14.62491950  4137
HUANJING 1A (HJ-1A)     
1 33320U 08041A   24239.19918561  .00003139  00000+0  41575-3 0  9994
2 33320  97.6339 242.7785 0021475 139.1407 221.1420 14.80415568860715
HUANJING 1B (HJ-1B)     
1 33321U 08041B   24239.19137212  .00002226  00000+0  29312-3 0  9992
2 33321  97.6280 247.2909 0038122 184.6770 175.4093 14.80589608860730
YAOGAN-4                
1 33446U 08061A   24239.06733517  .00002954  00000+0  39456-3 0  9996
2 33446  97.8786 169.6370 0016516  62.0293 298.2588 14.80200917847890
DEIMOS-1                
1 35681U 09041A   24239.21131189  .00001540  00000+0  24398-3 0  9991
2 35681  97.6836  57.3995 0002245 125.0143 235.1277 14.73539387809623
UK-DMC 2                
1 35683U 09041C   24239.21718630  .00002330  00000+0  36473-3 0  9990
2 35683  97.7911  24.0270 0001107  98.4871 261.6463 14.73635104809326
DMC3-FM1                
1 40715U 15032A   24239.16339227  .00001743  00000+0  21585-3 0  9999
2 40715  97.7392 116.0003 0007194  69.2977 290.9008 14.83924218491956
DMC3-FM2                
1 40716U 15032B   24239.18591836  .00001772  00000+0  21932-3 0  9996
2 40716  97.7444 117.1385 0009117  72.0066 288.2142 14.83932679491957
DMC3-FM3                
1 40717U 15032C   24239.21479734  .00001723  00000+0  21389-3 0  9995
2 40717  97.7493 118.4753 0010566  69.0565 291.1779 14.83839665491966
NOAA 15                 
1 25338U 98030A   24239.16112705  .00000436  00000+0  19794-3 0  9999
2 25338  98.5662 264.8199 0011406 117.8415 242.3923 14.26678316367417
DMSP 5D-3 F16 (USA 172) 
1 28054U 03048A   24239.20204948  .00000340  00000+0  20276-3 0  9999
2 28054  99.0231 246.3338 0006692 207.4534 225.4431 14.14087267 76174
NOAA 18                 
1 28654U 05018A   24239.15624354  .00000435  00000+0  25536-3 0  9994
2 28654  98.8709 315.5324 0013625 221.4972 138.5167 14.13298644993144
METEOSAT-9 (MSG-2)      
1 28912U 05049B   24239.14076035  .00000114  00000+0  00000+0 0  9990
2 28912   7.8441  60.2616 0000979 212.6708 158.2790  1.00270681 68461
EWS-G1 (GOES 13)        
1 29155U 06018A   24238.47346399 -.00000108  00000+0  00000+0 0  9999
2 29155   2.8027  84.4630 0071247 255.9154  90.7905  0.98967954 36714
DMSP 5D-3 F17 (USA 191) 
1 29522U 06050A   24239.21465858  .00000367  00000+0  21352-3 0  9991
2 29522  98.7455 248.3502 0010918 135.3656 224.8398 14.14540409919098
FENGYUN 3A              
1 32958U 08026A   24239.11533817  .00000377  00000+0  20036-3 0  9992
2 32958  98.6077 184.2283 0007754 226.1030 133.9506 14.19162334841870
NOAA 19                 
1 33591U 09005A   24239.18849212  .00000389  00000+0  23217-3 0  9997
2 33591  99.0415 295.7109 0014832  95.3814 264.9050 14.13091639801510
GOES 14                 
1 35491U 09033A   24238.60945831 -.00000077  00000+0  00000+0 0  9995
2 35491   0.0490 251.3643 0004010 262.5908 291.4552  1.00272786 55481
DMSP 5D-3 F18 (USA 210) 
1 35951U 09057A   24239.23759244  .00000661  00000+0  36956-3 0  9994
2 35951  98.8205 213.6689 0010625 334.0499  26.0140 14.14230115766260
EWS-G2 (GOES 15)        
1 36411U 10008A   24238.92341095  .00000027  00000+0  00000+0 0  9993
2 36411   0.4283 274.7631 0005396 296.4697 157.4326  1.00267531 53023
COMS 1                  
1 36744U 10032A   24238.94258626 -.00000355  00000+0  00000+0 0  9993
2 36744   3.1247  83.6092 0000853  92.8526 265.6764  1.00271370 52036
FENGYUN 3B              
1 37214U 10059A   24239.23695785  .00000221  00000+0  13899-3 0  9994
2 37214  99.0523 268.2980 0021168 253.9809 177.4237 14.14548556714158
SUOMI NPP               
1 37849U 11061A   24239.17509012  .00000253  00000+0  14085-3 0  9995
2 37849  98.7234 176.1086 0001988  75.2710 284.8686 14.19557645664794
FENGYUN 2F              
1 38049U 12002A   24238.88761664 -.00000368  00000+0  00000+0 0  9990
2 38049   5.7632  72.4154 0001909 157.3739 176.2571  1.00261840 46254
METEOSAT-10 (MSG-3)     
1 38552U 12035B   24239.06924302 -.00000017  00000+0  00000+0 0  9997
2 38552   3.1206  61.3941 0000498 235.4114  63.0311  1.00269313 44593
METOP-B                 
1 38771U 12049A   24239.14073921  .00000311  00000+0  16191-3 0  9994
2 38771  98.6223 294.7732 0000913 107.5589 252.5688 14.21485552619481
INSAT-3D                
1 39216U 13038B   24238.87134437 -.00000349  00000+0  00000+0 0  9997
2 39216   0.2106  93.8409 0001525 116.3531 207.6712  1.00270957 40457
FENGYUN 3C              
1 39260U 13052A   24239.25148982  .00000296  00000+0  16994-3 0  9998
2 39260  98.4330 235.1568 0012130 121.4670 238.7692 14.16260916565242
METEOR-M 2              
1 40069U 14037A   24239.23216270  .00000364  00000+0  18670-3 0  9994
2 40069  98.4419 230.3568 0006371 144.6899 215.4702 14.21033977525573
HIMAWARI-8              
1 40267U 14060A   24238.37286963 -.00000285  00000+0  00000+0 0  9997
2 40267   0.0415 254.0710 0000928 278.6139  76.3065  1.00272985 36139
FENGYUN 2G              
1 40367U 14090A   24238.89683898 -.00000309  00000+0  00000+0 0  9993
2 40367   3.9649  80.7172 0003669 144.2038 171.7704  1.00261616 35417
METEOSAT-11 (MSG-4)     
1 40732U 15034A   24238.82966237  .00000052  00000+0  00000+0 0  9996
2 40732   1.5499  70.3672 0000804 170.7856  41.4819  1.00266515   606
ELEKTRO-L 2             
1 41105U 15074A   24238.84268576 -.00000128  00000+0  00000+0 0  9993
2 41105   5.0153  78.6193 0002491 153.4123  31.4253  1.00270890 31881
INSAT-3DR               
1 41752U 16054A   24236.48104865 -.00000086  00000+0  00000+0 0  9991
2 41752   0.0894  93.9907 0011470 167.8591 317.5947  1.00272276 29171
HIMAWARI-9              
1 41836U 16064A   24236.69910419 -.00000283  00000+0  00000+0 0  9997
2 41836   0.0255 179.0415 0001248  16.2849 169.5590  1.00270323 28562
GOES 16                 
1 41866U 16071A   24238.47302959 -.00000257  00000+0  00000+0 0  9991
2 41866   0.0805 273.5041 0000420 303.7911 212.0025  1.00271128 28477
FENGYUN 4A              
1 41882U 16077A   24238.89185839 -.00000209  00000+0  00000+0 0  9994
2 41882   0.6298  86.0484 0007874 342.3432 313.7793  1.00275603 28307
CYGFM05                 
1 41884U 16078A   24238.34532809  .00016410  00000+0  56894-3 0  9996
2 41884  34.9608 222.6894 0010600 115.7759 244.4051 15.28904380426666
